{"type": "FeatureCollection", "features": [ {"type": "Feature", "properties": {"norad_id": 32289, "name": "YAOGAN-3", "group": "resource", "lat": 14.917728226055324, "lon": 15.93373061889496, "alt_km": 598.6936347415785, "timestamp": "2025-12-17T10:52:54.005563+00:00", "meta": {"OBJECT_NAME": "YAOGAN-3", "OBJECT_ID": "2007-055A", "EPOCH": "2025-12-16T23:31:52.583808", "MEAN_MOTION": 14.89881741, "ECCENTRICITY": 0.00013672, "INCLINATION": 97.837, "RA_OF_ASC_NODE": 17.5679, "ARG_OF_PERICENTER": 74.6715, "MEAN_ANOMALY": 285.4653, "EPHEMERIS_TYPE": 0, "CLASSIFICATION_TYPE": "U", "NORAD_CAT_ID": 32289, "ELEMENT_SET_NO": 999, "REV_AT_EPOCH": 97872, "BSTAR": 0.00023486389, "MEAN_MOTION_DOT": 2.202e-05, "MEAN_MOTION_DDOT": 0}, "tle": {"line1": "1 32289U 07055A   25350.98046972  .00002202  00000+0  23486-3 0  9992", "line2": "2 32289  97.8370  17.5679 0001367  74.6715 285.4653 14.89881741978729"}}, "geometry": {"type": "Point", "coordinates": [15.93373061889496, 14.917728226055324]}}, {"type": "Feature", "properties": {"norad_id": 32376, "name": "COSMO-SKYMED 2", "group": "resource", "lat": 16.21026690491639, "lon": -4.9862157249773205, "alt_km": 623.1038080555891, "timestamp": "2025-12-17T10:52:54.005579+00:00", "meta": {"OBJECT_NAME": "COSMO-SKYMED 2", "OBJECT_ID": "2007-059A", "EPOCH": "2025-12-17T00:25:29.440704", "MEAN_MOTION": 14.82148015, "ECCENTRICITY": 0.00013706, "INCLINATION": 97.8804, "RA_OF_ASC_NODE": 172.2771, "ARG_OF_PERICENTER": 83.2279, "MEAN_ANOMALY": 276.909, "EPHEMERIS_TYPE": 0, "CLASSIFICATION_TYPE": "U", "NORAD_CAT_ID": 32376, "ELEMENT_SET_NO": 999, "REV_AT_EPOCH": 97501, "BSTAR": 7.379234e-05, "MEAN_MOTION_DOT": 5.35e-06, "MEAN_MOTION_DDOT": 0}, "tle": {"line1": "1 32376U 07059A   25351.01770186  .00000535  00000+0  73792-4 0  9992", "line2": "2 32376  97.8804 172.2771 0001370  83.2279 276.9090 14.82148015975017"}}, "geometry": {"type": "Point", "coordinates": [-4.9862157249773205, 16.21026690491639]}}, {"type": "Feature", "properties": {"norad_id": 32382, "name": "RADARSAT-2", "group": "resource", "lat": -50.68497046975413, "lon": 6.598819424496627, "alt_km": 799.2278130270888, "timestamp": "2025-12-17T10:52:54.005590+00:00", "meta": {"OBJECT_NAME": "RADARSAT-2", "OBJECT_ID": "2007-061A", "EPOCH": "2025-12-16T23:22:00.943392", "MEAN_MOTION": 14.29983434, "ECCENTRICITY": 0.00011092, "INCLINATION": 98.5798, "RA_OF_ASC_NODE": 355.5026, "ARG_OF_PERICENTER": 84.2711, "MEAN_ANOMALY": 275.8598, "EPHEMERIS_TYPE": 0, "CLASSIFICATION_TYPE": "U", "NORAD_CAT_ID": 32382, "ELEMENT_SET_NO": 999, "REV_AT_EPOCH": 93991, "BSTAR": 7.2292106e-05, "MEAN_MOTION_DOT": 1.43e-06, "MEAN_MOTION_DDOT": 0}, "tle": {"line1": "1 32382U 07061A   25350.97362203  .00000143  00000+0  72292-4 0  9992", "line2": "2 32382  98.5798 355.5026 0001109  84.2711 275.8598 14.29983434939918"}}, "geometry": {"type": "Point", "coordinates": [6.598819424496627, -50.68497046975413]}}, {"type": "Feature", "properties": {"norad_id": 32783, "name": "CARTOSAT-2A", "group": "resource", "lat": -67.33701774635234, "lon": -158.01720480022718, "alt_km": 641.4223498615993, "timestamp": "2025-12-17T10:52:54.005601+00:00", "meta": {"OBJECT_NAME": "CARTOSAT-2A", "OBJECT_ID": "2008-021A", "EPOCH": "2025-12-16T22:23:37.794048", "MEAN_MOTION": 14.78945934, "ECCENTRICITY": 0.00115897, "INCLINATION": 97.7932, "RA_OF_ASC_NODE": 40.6258, "ARG_OF_PERICENTER": 351.0843, "MEAN_ANOMALY": 9.0161, "EPHEMERIS_TYPE": 0, "CLASSIFICATION_TYPE": "U", "NORAD_CAT_ID": 32783, "ELEMENT_SET_NO": 999, "REV_AT_EPOCH": 95186, "BSTAR": 0.00011276527, "MEAN_MOTION_DOT": 7.82e-06, "MEAN_MOTION_DDOT": 0}, "tle": {"line1": "1 32783U 08021A   25350.93307632  .00000782  00000+0  11277-3 0  9999", "line2": "2 32783  97.7932  40.6258 0011589 351.0843   9.0161 14.78945934951865"}}, "geometry": {"type": "Point", "coordinates": [-158.01720480022718, -67.33701774635234]}}, {"type": "Feature", "properties": {"norad_id": 33320, "name": "HUANJING 1A (HJ-1A)", "group": "resource", "lat": -9.730133305826907, "lon": 158.2341476974938, "alt_km": 636.496136887361, "timestamp": "2025-12-17T10:52:54.005612+00:00", "meta": {"OBJECT_NAME": "HUANJING 1A (HJ-1A)", "OBJECT_ID": "2008-041A", "EPOCH": "2025-12-17T00:18:58.960224", "MEAN_MOTION": 14.83410296, "ECCENTRICITY": 0.00198903, "INCLINATION": 97.6538, "RA_OF_ASC_NODE": 339.1336, "ARG_OF_PERICENTER": 21.0207, "MEAN_ANOMALY": 339.182, "EPHEMERIS_TYPE": 0, "CLASSIFICATION_TYPE": "U", "NORAD_CAT_ID": 33320, "ELEMENT_SET_NO": 999, "REV_AT_EPOCH": 93139, "BSTAR": 0.00019127504, "MEAN_MOTION_DOT": 1.524e-05, "MEAN_MOTION_DDOT": 0}, "tle": {"line1": "1 33320U 08041A   25351.01318241  .00001524  00000+0  19128-3 0  9995", "line2": "2 33320  97.6538 339.1336 0019890  21.0207 339.1820 14.83410296931397"}}, "geometry": {"type": "Point", "coordinates": [158.2341476974938, -9.730133305826907]}}, {"type": "Feature", "properties": {"norad_id": 33321, "name": "HUANJING 1B (HJ-1B)", "group": "resource", "lat": 40.33855666632648, "lon": -23.305304026292795, "alt_km": 592.1381917332201, "timestamp": "2025-12-17T10:52:54.005622+00:00", "meta": {"OBJECT_NAME": "HUANJING 1B (HJ-1B)", "OBJECT_ID": "2008-041B", "EPOCH": "2025-12-16T23:21:46.190592", "MEAN_MOTION": 14.82832828, "ECCENTRICITY": 0.0038148, "INCLINATION": 97.64, "RA_OF_ASC_NODE": 342.7814, "ARG_OF_PERICENTER": 62.2771, "MEAN_ANOMALY": 298.2305, "EPHEMERIS_TYPE": 0, "CLASSIFICATION_TYPE": "U", "NORAD_CAT_ID": 33321, "ELEMENT_SET_NO": 999, "REV_AT_EPOCH": 93140, "BSTAR": 0.00010502034, "MEAN_MOTION_DOT": 8.09e-06, "MEAN_MOTION_DDOT": 0}, "tle": {"line1": "1 33321U 08041B   25350.97345128  .00000809  00000+0  10502-3 0  9996", "line2": "2 33321  97.6400 342.7814 0038148  62.2771 298.2305 14.82832828931400"}}, "geometry": {"type": "Point", "coordinates": [-23.305304026292795, 40.33855666632648]}}, {"type": "Feature", "properties": {"norad_id": 33331, "name": "GEOEYE 1", "group": "resource", "lat": 78.01893532659692, "lon": 20.360279697005943, "alt_km": 672.6498241287381, "timestamp": "2025-12-17T10:52:54.005633+00:00", "meta": {"OBJECT_NAME": "GEOEYE 1", "OBJECT_ID": "2008-042A", "EPOCH": "2025-12-16T23:02:08.209536", "MEAN_MOTION": 14.64706329, "ECCENTRICITY": 0.00027571, "INCLINATION": 98.125, "RA_OF_ASC_NODE": 62.1877, "ARG_OF_PERICENTER": 267.1549, "MEAN_ANOMALY": 92.9338, "EPHEMERIS_TYPE": 0, "CLASSIFICATION_TYPE": "U", "NORAD_CAT_ID": 33331, "ELEMENT_SET_NO": 999, "REV_AT_EPOCH": 92347, "BSTAR": 0.00013053978, "MEAN_MOTION_DOT": 6.47e-06, "MEAN_MOTION_DDOT": 0}, "tle": {"line1": "1 33331U 08042A   25350.95981724  .00000647  00000+0  13054-3 0  9999", "line2": "2 33331  98.1250  62.1877 0002757 267.1549  92.9338 14.64706329923477"}}, "geometry": {"type": "Point", "coordinates": [20.360279697005943, 78.01893532659692]}}, {"type": "Feature", "properties": {"norad_id": 33396, "name": "THEOS", "group": "resource", "lat": -77.83095146933135, "lon": -175.07825018112496, "alt_km": 833.1572844260809, "timestamp": "2025-12-17T10:52:54.005644+00:00", "meta": {"OBJECT_NAME": "THEOS", "OBJECT_ID": "2008-049A", "EPOCH": "2025-12-16T23:30:32.013216", "MEAN_MOTION": 14.20097194, "ECCENTRICITY": 0.00011565, "INCLINATION": 98.5869, "RA_OF_ASC_NODE": 48.9442, "ARG_OF_PERICENTER": 94.6607, "MEAN_ANOMALY": 265.4702, "EPHEMERIS_TYPE": 0, "CLASSIFICATION_TYPE": "U", "NORAD_CAT_ID": 33396, "ELEMENT_SET_NO": 999, "REV_AT_EPOCH": 89210, "BSTAR": -7.52967e-07, "MEAN_MOTION_DOT": -4.4e-07, "MEAN_MOTION_DDOT": 0}, "tle": {"line1": "1 33396U 08049A   25350.97953719 -.00000044  00000+0 -75297-6 0  9995", "line2": "2 33396  98.5869  48.9442 0001156  94.6607 265.4702 14.20097194892100"}}, "geometry": {"type": "Point", "coordinates": [-175.07825018112496, -77.83095146933135]}}, {"type": "Feature", "properties": {"norad_id": 33412, "name": "COSMO-SKYMED 3", "group": "resource", "lat": -6.525921589448282, "lon": -157.17202020940593, "alt_km": 565.0409379478469, "timestamp": "2025-12-17T10:52:54.005654+00:00", "meta": {"OBJECT_NAME": "COSMO-SKYMED 3", "OBJECT_ID": "2008-054A", "EPOCH": "2025-12-16T23:44:38.918112", "MEAN_MOTION": 15.05399061, "ECCENTRICITY": 0.00164385, "INCLINATION": 97.8473, "RA_OF_ASC_NODE": 201.4522, "ARG_OF_PERICENTER": 158.3193, "MEAN_ANOMALY": 201.8732, "EPHEMERIS_TYPE": 0, "CLASSIFICATION_TYPE": "U", "NORAD_CAT_ID": 33412, "ELEMENT_SET_NO": 999, "REV_AT_EPOCH": 92951, "BSTAR": 0.00028320414, "MEAN_MOTION_DOT": 4.008e-05, "MEAN_MOTION_DDOT": 0}, "tle": {"line1": "1 33412U 08054A   25350.98933933  .00004008  00000+0  28320-3 0  9991", "line2": "2 33412  97.8473 201.4522 0016438 158.3193 201.8732 15.05399061929519"}}, "geometry": {"type": "Point", "coordinates": [-157.17202020940593, -6.525921589448282]}}, {"type": "Feature", "properties": {"norad_id": 33446, "name": "YAOGAN-4", "group": "resource", "lat": -49.03121095699816, "lon": -69.26967031338903, "alt_km": 618.3947679794064, "timestamp": "2025-12-17T10:52:54.005664+00:00", "meta": {"OBJECT_NAME": "YAOGAN-4", "OBJECT_ID": "2008-061A", "EPOCH": "2025-12-16T18:54:29.509920", "MEAN_MOTION": 14.82694666, "ECCENTRICITY": 0.00133305, "INCLINATION": 97.9187, "RA_OF_ASC_NODE": 280.8474, "ARG_OF_PERICENTER": 309.2264, "MEAN_ANOMALY": 50.7765, "EPHEMERIS_TYPE": 0, "CLASSIFICATION_TYPE": "U", "NORAD_CAT_ID": 33446, "ELEMENT_SET_NO": 999, "REV_AT_EPOCH": 91863, "BSTAR": 0.00016727314, "MEAN_MOTION_DOT": 1.297e-05, "MEAN_MOTION_DDOT": 0}, "tle": {"line1": "1 33446U 08061A   25350.78784155  .00001297  00000+0  16727-3 0  9999", "line2": "2 33446  97.9187 280.8474 0013330 309.2264  50.7765 14.82694666918631"}}, "geometry": {"type": "Point", "coordinates": [-69.26967031338903, -49.03121095699816]}}]}